start=new Date('2021-11-12T00:00:00.000Z').valueOf();
sats=[{"PERIOD":"95.592","APOAPSIS":"548.301","REV_AT_EPOCH":"4199","ELEMENT_SET_NO":"999","SEMIMAJOR_AXIS":"6925.331","EPOCH":"2021-11-11T17:32:40.904736","RCS_SIZE":"LARGE","INCLINATION":"53.0552","TIME_SYSTEM":"UTC","MEAN_MOTION_DOT":"0.00000333","CENTER_NAME":"EARTH","MEAN_MOTION":"15.06405671","REF_FRAME":"TEME","MEAN_MOTION_DDOT":"0.0000000000000","ARG_OF_PERICENTER":"70.9319","RA_OF_ASC_NODE":"319.8354","SITE":"AFETR","DECAY_DATE":null,"ECCENTRICITY":"0.00015960","OBJECT_NAME":"STARLINK-1704","FILE":"3212485","NORAD_CAT_ID":"47625","MEAN_ANOMALY":"289.1842","CLASSIFICATION_TYPE":"U","OBJECT_ID":"2021-012F","EPHEMERIS_TYPE":"0","LAUNCH_DATE":"2021-02-16","BSTAR":"0.00004128000000","MEAN_ELEMENT_THEORY":"SGP4","TLE_LINE2":"2 47625  53.0552 319.8354 0001596  70.9319 289.1842 15.06405671 41991","PERIAPSIS":"546.091","COUNTRY_CODE":"US","GP_ID":"189527113","TLE_LINE1":"1 47625U 21012F   21315.73102899  .00000333  00000-0  41280-4 0  9999","OBJECT_TYPE":"PAYLOAD"},{"MEAN_MOTION_DDOT":"0.0000000000000","ARG_OF_PERICENTER":"76.5627","MEAN_MOTION":"15.06404332","REF_FRAME":"TEME","RA_OF_ASC_NODE":"319.8912","SITE":"AFETR","ECCENTRICITY":"0.00011330","DECAY_DATE":null,"OBJECT_NAME":"STARLINK-1761","MEAN_MOTION_DOT":"0.00002576","CENTER_NAME":"EARTH","RCS_SIZE":"LARGE","EPOCH":"2021-11-11T17:11:26.759616","INCLINATION":"53.0554","TIME_SYSTEM":"UTC","PERIOD":"95.592","ELEMENT_SET_NO":"999","SEMIMAJOR_AXIS":"6925.335","REV_AT_EPOCH":"4199","APOAPSIS":"547.985","TLE_LINE1":"1 47626U 21012G   21315.71628194  .00002576  00000-0  19171-3 0  9993","GP_ID":"189527364","OBJECT_TYPE":"PAYLOAD","BSTAR":"0.00019171000000","MEAN_ELEMENT_THEORY":"SGP4","PERIAPSIS":"546.416","TLE_LINE2":"2 47626  53.0554 319.8912 0001133  76.5627 283.5488 15.06404332 41992","COUNTRY_CODE":"US","LAUNCH_DATE":"2021-02-16","NORAD_CAT_ID":"47626","MEAN_ANOMALY":"283.5488","FILE":"3212485","CLASSIFICATION_TYPE":"U","OBJECT_ID":"2021-012G","EPHEMERIS_TYPE":"0"},{"RA_OF_ASC_NODE":"224.0083","SITE":"AFETR","ARG_OF_PERICENTER":"54.1054","MEAN_MOTION_DDOT":"0.0000000000000","REF_FRAME":"TEME","MEAN_MOTION":"15.06408431","DECAY_DATE":null,"ECCENTRICITY":"0.00019370","OBJECT_NAME":"STARLINK-1972","CENTER_NAME":"EARTH","MEAN_MOTION_DOT":"-0.00041344","RCS_SIZE":"MEDIUM","EPOCH":"2021-11-11T22:00:00.999936","TIME_SYSTEM":"UTC","INCLINATION":"53.0502","PERIOD":"95.592","SEMIMAJOR_AXIS":"6925.323","ELEMENT_SET_NO":"999","APOAPSIS":"548.529","REV_AT_EPOCH":"4283","TLE_LINE1":"1 47627U 21012H   21315.91667824 -.00041344  00000-0 -27721-2 0  9996","GP_ID":"189496736","OBJECT_TYPE":"PAYLOAD","PERIAPSIS":"545.846","TLE_LINE2":"2 47627  53.0502 224.0083 0001937  54.1054 255.8669 15.06408431 42831","BSTAR":"-0.00277210000000","MEAN_ELEMENT_THEORY":"SGP4","COUNTRY_CODE":"US","LAUNCH_DATE":"2021-02-16","CLASSIFICATION_TYPE":"U","NORAD_CAT_ID":"47627","MEAN_ANOMALY":"255.8669","FILE":"3212104","EPHEMERIS_TYPE":"0","OBJECT_ID":"2021-012H"},{"PERIOD":"95.591","SEMIMAJOR_AXIS":"6925.313","ELEMENT_SET_NO":"999","APOAPSIS":"548.302","REV_AT_EPOCH":"4200","RCS_SIZE":"LARGE","EPOCH":"2021-11-11T18:04:32.055456","INCLINATION":"53.0565","TIME_SYSTEM":"UTC","CENTER_NAME":"EARTH","MEAN_MOTION_DOT":"-0.00000189","SITE":"AFETR","RA_OF_ASC_NODE":"319.7474","ARG_OF_PERICENTER":"63.4165","MEAN_MOTION_DDOT":"0.0000000000000","REF_FRAME":"TEME","MEAN_MOTION":"15.06411687","OBJECT_NAME":"STARLINK-1973","DECAY_DATE":null,"ECCENTRICITY":"0.00016240","CLASSIFICATION_TYPE":"U","NORAD_CAT_ID":"47628","MEAN_ANOMALY":"296.6991","FILE":"3212485","EPHEMERIS_TYPE":"0","OBJECT_ID":"2021-012J","LAUNCH_DATE":"2021-02-16","PERIAPSIS":"546.053","TLE_LINE2":"2 47628  53.0565 319.7474 0001624  63.4165 296.6991 15.06411687 42003","MEAN_ELEMENT_THEORY":"SGP4","BSTAR":"0.00000620210000","COUNTRY_CODE":"US","TLE_LINE1":"1 47628U 21012J   21315.75314879 -.00000189  00000-0  62021-5 0  9994","GP_ID":"189526362","OBJECT_TYPE":"PAYLOAD"},{"ARG_OF_PERICENTER":"329.2950","MEAN_MOTION_DDOT":"0.0000000000000","MEAN_MOTION":"15.72427526","REF_FRAME":"TEME","RA_OF_ASC_NODE":"205.6948","SITE":"AFETR","DECAY_DATE":null,"OBJECT_NAME":"STARLINK-1974","ECCENTRICITY":"0.00082950","MEAN_MOTION_DOT":"-0.01027247","CENTER_NAME":"EARTH","RCS_SIZE":"LARGE","EPOCH":"2021-11-11T22:00:00.999936","INCLINATION":"53.0544","TIME_SYSTEM":"UTC","PERIOD":"91.578","SEMIMAJOR_AXIS":"6730.098","ELEMENT_SET_NO":"999","APOAPSIS":"357.546","REV_AT_EPOCH":"4309","TLE_LINE1":"1 47629U 21012K   21315.91667824 -.01027247  00000-0 -83478-2 0  9996","GP_ID":"189496739","OBJECT_TYPE":"PAYLOAD","MEAN_ELEMENT_THEORY":"SGP4","BSTAR":"-0.00834780000000","PERIAPSIS":"346.381","TLE_LINE2":"2 47629  53.0544 205.6948 0008295 329.2950 340.2999 15.72427526 43092","COUNTRY_CODE":"US","LAUNCH_DATE":"2021-02-16","NORAD_CAT_ID":"47629","MEAN_ANOMALY":"340.2999","FILE":"3212104","CLASSIFICATION_TYPE":"U","OBJECT_ID":"2021-012K","EPHEMERIS_TYPE":"0"},{"PERIOD":"95.592","ELEMENT_SET_NO":"999","SEMIMAJOR_AXIS":"6925.326","APOAPSIS":"548.260","REV_AT_EPOCH":"4225","RCS_SIZE":"LARGE","EPOCH":"2021-11-11T16:24:58.470912","INCLINATION":"53.0543","TIME_SYSTEM":"UTC","MEAN_MOTION_DOT":"0.00000577","CENTER_NAME":"EARTH","MEAN_MOTION_DDOT":"0.0000000000000","ARG_OF_PERICENTER":"80.9753","REF_FRAME":"TEME","MEAN_MOTION":"15.06407339","RA_OF_ASC_NODE":"300.0342","SITE":"AFETR","DECAY_DATE":null,"ECCENTRICITY":"0.00015430","OBJECT_NAME":"STARLINK-1983","MEAN_ANOMALY":"279.1411","NORAD_CAT_ID":"47630","FILE":"3212485","CLASSIFICATION_TYPE":"U","OBJECT_ID":"2021-012L","EPHEMERIS_TYPE":"0","LAUNCH_DATE":"2021-02-16","BSTAR":"0.00005761900000","MEAN_ELEMENT_THEORY":"SGP4","PERIAPSIS":"546.122","TLE_LINE2":"2 47630  53.0543 300.0342 0001543  80.9753 279.1411 15.06407339 42255","COUNTRY_CODE":"US","TLE_LINE1":"1 47630U 21012L   21315.68401008  .00000577  00000-0  57619-4 0  9996","GP_ID":"189527862","OBJECT_TYPE":"PAYLOAD"},{"APOAPSIS":"360.088","REV_AT_EPOCH":"368","SEMIMAJOR_AXIS":"6735.103","ELEMENT_SET_NO":"999","PERIOD":"91.680","INCLINATION":"53.0405","TIME_SYSTEM":"UTC","EPOCH":"2021-11-11T22:00:00.999936","RCS_SIZE":"MEDIUM","MEAN_MOTION_DOT":"0.00002397","CENTER_NAME":"EARTH","DECAY_DATE":null,"OBJECT_NAME":"STARLINK-1985","ECCENTRICITY":"0.00046330","REF_FRAME":"TEME","MEAN_MOTION":"15.70675324","MEAN_MOTION_DDOT":"0.0000000000000","ARG_OF_PERICENTER":"118.4306","RA_OF_ASC_NODE":"207.8931","SITE":"AFETR","OBJECT_ID":"2021-012M","EPHEMERIS_TYPE":"0","FILE":"3212485","NORAD_CAT_ID":"47631","MEAN_ANOMALY":"205.3074","CLASSIFICATION_TYPE":"U","LAUNCH_DATE":"2021-02-16","COUNTRY_CODE":"US","MEAN_ELEMENT_THEORY":"SGP4","BSTAR":"0.00002376900000","TLE_LINE2":"2 47631  53.0405 207.8931 0004633 118.4306 205.3074 15.70675324  3687","PERIAPSIS":"353.847","OBJECT_TYPE":"PAYLOAD","GP_ID":"189526610","TLE_LINE1":"1 47631U 21012M   21315.91667824  .00002397  00000-0  23769-4 0  9994"},{"GP_ID":"189526860","TLE_LINE1":"1 47632U 21012N   21315.91667824 -.00035466  00000-0 -23735-2 0  9991","OBJECT_TYPE":"PAYLOAD","BSTAR":"-0.00237350000000","MEAN_ELEMENT_THEORY":"SGP4","TLE_LINE2":"2 47632  53.0530 223.9899 0002325  55.0824 120.0320 15.06404360  3581","PERIAPSIS":"545.590","COUNTRY_CODE":"US","LAUNCH_DATE":"2021-02-16","FILE":"3212485","MEAN_ANOMALY":"120.0320","NORAD_CAT_ID":"47632","CLASSIFICATION_TYPE":"U","OBJECT_ID":"2021-012N","EPHEMERIS_TYPE":"0","MEAN_MOTION":"15.06404360","REF_FRAME":"TEME","MEAN_MOTION_DDOT":"0.0000000000000","ARG_OF_PERICENTER":"55.0824","SITE":"AFETR","RA_OF_ASC_NODE":"223.9899","OBJECT_NAME":"STARLINK-1992","DECAY_DATE":null,"ECCENTRICITY":"0.00023250","MEAN_MOTION_DOT":"-0.00035466","CENTER_NAME":"EARTH","EPOCH":"2021-11-11T22:00:00.999936","RCS_SIZE":"LARGE","TIME_SYSTEM":"UTC","INCLINATION":"53.0530","PERIOD":"95.592","REV_AT_EPOCH":"358","APOAPSIS":"548.810","SEMIMAJOR_AXIS":"6925.335","ELEMENT_SET_NO":"999"},{"INCLINATION":"53.0547","TIME_SYSTEM":"UTC","RCS_SIZE":"LARGE","EPOCH":"2021-11-11T21:36:50.543136","SEMIMAJOR_AXIS":"6925.325","ELEMENT_SET_NO":"999","REV_AT_EPOCH":"4204","APOAPSIS":"548.327","PERIOD":"95.592","OBJECT_NAME":"STARLINK-2009","DECAY_DATE":null,"ECCENTRICITY":"0.00016420","ARG_OF_PERICENTER":"68.5577","MEAN_MOTION_DDOT":"0.0000000000000","REF_FRAME":"TEME","MEAN_MOTION":"15.06407570","RA_OF_ASC_NODE":"319.0792","SITE":"AFETR","MEAN_MOTION_DOT":"0.00000530","CENTER_NAME":"EARTH","LAUNCH_DATE":"2021-02-16","OBJECT_ID":"2021-012P","EPHEMERIS_TYPE":"0","NORAD_CAT_ID":"47633","MEAN_ANOMALY":"291.5587","FILE":"3212485","CLASSIFICATION_TYPE":"U","OBJECT_TYPE":"PAYLOAD","TLE_LINE1":"1 47633U 21012P   21315.90058499  .00000530  00000-0  54482-4 0  9990","GP_ID":"189527114","COUNTRY_CODE":"US","MEAN_ELEMENT_THEORY":"SGP4","BSTAR":"0.00005448200000","PERIAPSIS":"546.053","TLE_LINE2":"2 47633  53.0547 319.0792 0001642  68.5577 291.5587 15.06407570 42043"},{"BSTAR":"0.00029847000000","MEAN_ELEMENT_THEORY":"SGP4","PERIAPSIS":"546.055","TLE_LINE2":"2 47634  53.0537 319.7807 0001648  61.7124 298.4031 15.06405720 41994","COUNTRY_CODE":"US","TLE_LINE1":"1 47634U 21012Q   21315.74577433  .00004168  00000-0  29847-3 0  9994","GP_ID":"189527365","OBJECT_TYPE":"PAYLOAD","NORAD_CAT_ID":"47634","MEAN_ANOMALY":"298.4031","FILE":"3212485","CLASSIFICATION_TYPE":"U","OBJECT_ID":"2021-012Q","EPHEMERIS_TYPE":"0","LAUNCH_DATE":"2021-02-16","MEAN_MOTION_DOT":"0.00004168","CENTER_NAME":"EARTH","ARG_OF_PERICENTER":"61.7124","MEAN_MOTION_DDOT":"0.0000000000000","REF_FRAME":"TEME","MEAN_MOTION":"15.06405720","RA_OF_ASC_NODE":"319.7807","SITE":"AFETR","DECAY_DATE":null,"ECCENTRICITY":"0.00016480","OBJECT_NAME":"STARLINK-2010","PERIOD":"95.592","ELEMENT_SET_NO":"999","SEMIMAJOR_AXIS":"6925.331","REV_AT_EPOCH":"4199","APOAPSIS":"548.337","RCS_SIZE":"LARGE","EPOCH":"2021-11-11T17:53:54.902112","INCLINATION":"53.0537","TIME_SYSTEM":"UTC"}];
